GPS BIIR-2  (PRN 13)    
1 24876U 97035A   25289.89455348  .00000065  00000+0  00000+0 0  9992
2 24876  55.8657 108.0919 0096050  56.7690 304.1971  2.00563185207077
GPS BIIR-4  (PRN 20)    
1 26360U 00025A   25290.99985025 -.00000106  00000+0  00000+0 0  9995
2 26360  55.0139  29.0924 0037910 236.8832 292.8295  2.00572195186418
GPS BIIR-5  (PRN 22)    
1 26407U 00040A   25290.99596542 -.00000052  00000+0  00000+0 0  9996
2 26407  54.9070 224.7839 0129118 300.6665  66.1188  2.00567229185095
GPS BIIR-8  (PRN 16)    
1 27663U 03005A   25289.05753890 -.00000048  00000+0  00000+0 0  9996
2 27663  54.9409 224.6710 0144819  51.0039 130.9771  2.00573999166414
GPS BIIR-11 (PRN 19)    
1 28190U 04009A   25290.07614416 -.00000032  00000+0  00000+0 0  9994
2 28190  55.0353 285.5020 0107695 166.4667 192.0451  2.00562956158066
GPS BIIR-13 (PRN 02)    
1 28474U 04045A   25285.00739219 -.00000080  00000+0  00000+0 0  9998
2 28474  55.2690 334.8903 0168740 306.8414  50.6846  2.00566520153448
GPS BIIRM-1 (PRN 17)    
1 28874U 05038A   25290.79932337 -.00000038  00000+0  00000+0 0  9996
2 28874  55.0798 282.9523 0133701 292.1258 248.9978  2.00551924146972
GPS BIIRM-2 (PRN 31)    
1 29486U 06042A   25287.45075457 -.00000003  00000+0  00000+0 0  9994
2 29486  54.6868 161.0942 0106869  50.2277 135.9953  2.00556349139466
GPS BIIRM-3 (PRN 12)    
1 29601U 06052A   25290.60903353 -.00000052  00000+0  00000+0 0  9994
2 29601  54.9862 223.6243 0086016  87.0234 273.9495  2.00569985138545
GPS BIIRM-4 (PRN 15)    
1 32260U 07047A   25288.42067645  .00000033  00000+0  00000+0 0  9994
2 32260  53.9152  90.1665 0164751  84.3149 277.5842  2.00566859131900
GPS BIIRM-5 (PRN 29)    
1 32384U 07062A   25289.23426772 -.00000023  00000+0  00000+0 0  9998
2 32384  55.2304 283.9514 0032373 163.8283 192.9012  2.00574479130615
GPS BIIRM-6 (PRN 07)    
1 32711U 08012A   25290.83349167  .00000037  00000+0  00000+0 0  9992
2 32711  54.4685 159.6055 0200909 244.4465 113.5514  2.00563038128893
GPS BIIRM-8 (PRN 05)    
1 35752U 09043A   25290.05530785 -.00000091  00000+0  00000+0 0  9998
2 35752  56.0541  37.0177 0053625  82.2052  93.7009  2.00569010118483
GPS BIIF-1  (PRN 25)    
1 36585U 10022A   25290.15958222 -.00000053  00000+0  00000+0 0  9991
2 36585  54.3132 218.3542 0123278  64.4643 307.8610  2.00550170112720
GPS BIIF-3  (PRN 24)    
1 38833U 12053A   25289.01679139  .00000021  00000+0  00000+0 0  9999
2 38833  53.5471 153.6034 0173480  62.9686 298.8779  2.00564484 94549
GPS BIIF-4  (PRN 27)    
1 39166U 13023A   25288.38187607 -.00000015  00000+0  00000+0 0  9994
2 39166  54.7016 278.9391 0134573  48.1911 312.9543  2.00565336 90978
GPS BIIF-5  (PRN 30)    
1 39533U 14008A   25289.37568351  .00000016  00000+0  00000+0 0  9995
2 39533  53.6219 159.2647 0078341 226.1643 133.2680  2.00571104 84793
GPS BIIF-6  (PRN 06)    
1 39741U 14026A   25289.15671833 -.00000090  00000+0  00000+0 0  9995
2 39741  56.6044 341.0173 0037104 316.8418  42.9260  2.00565427 83641
GPS BIIF-7  (PRN 09)    
1 40105U 14045A   25289.24691742  .00000050  00000+0  00000+0 0  9998
2 40105  55.1924  98.1921 0033278 118.0337 242.3365  2.00569032 81184
GPS BIIF-8  (PRN 03)    
1 40294U 14068A   25290.11906223 -.00000085  00000+0  00000+0 0  9992
2 40294  56.8179  40.3353 0061367  69.9063 290.7512  2.00561334 80335
GPS BIIF-9  (PRN 26)    
1 40534U 15013A   25289.25314247 -.00000052  00000+0  00000+0 0  9996
2 40534  53.2107 214.2695 0104089  36.9662 323.7484  2.00565925 76939
GPS BIIF-10 (PRN 08)    
1 40730U 15033A   25290.41213733 -.00000037  00000+0  00000+0 0  9997
2 40730  54.1788 277.0891 0107458  25.6594 334.8641  2.00568499 75126
GPS BIIF-11 (PRN 10)    
1 41019U 15062A   25289.97233200 -.00000085  00000+0  00000+0 0  9993
2 41019  56.7934  40.1972 0108580 228.5463 130.5190  2.00567046 72958
GPS BIIF-12 (PRN 32)    
1 41328U 16007A   25285.06828471  .00000029  00000+0  00000+0 0  9999
2 41328  55.3687  99.3039 0089398 242.5692 116.5476  2.00563887 70864
GPS BIII-1  (PRN 04)    
1 43873U 18109A   25290.71101468  .00000055  00000+0  00000+0 0  9998
2 43873  55.5336 101.7581 0036005 194.4714 175.6078  2.00574946 50210
GPS BIII-2  (PRN 18)    
1 44506U 19056A   25290.84335023 -.00000091  00000+0  00000+0 0  9995
2 44506  55.7426 340.7728 0057382 197.0862 163.1018  2.00564677 45218
GPS BIII-3  (PRN 23)    
1 45854U 20041A   25290.92065726 -.00000093  00000+0  00000+0 0  9999
2 45854  56.5092  38.3589 0058910 201.1801 159.5867  2.00563238 39188
GPS BIII-4  (PRN 14)    
1 46826U 20078A   25289.20312859 -.00000051  00000+0  00000+0 0  9994
2 46826  54.0306 220.6753 0063294 203.5882 326.5083  2.00567133 36613
GPS BIII-5  (PRN 11)    
1 48859U 21054A   25289.21780061 -.00000094  00000+0  00000+0 0  9999
2 48859  55.2755 342.2645 0024072 230.1379 138.7905  2.00556500 31865
GPS BIII-6  (PRN 28)    
1 55268U 23009A   25290.39905888  .00000035  00000+0  00000+0 0  9994
2 55268  55.0999 158.0588 0003675 356.7575 186.6356  2.00560292 20372
GPS BIII-7  (PRN 01)    
1 62339U 24242A   25290.54198530 -.00000097  00000+0  00000+0 0  9995
2 62339  54.9394 344.0177 0009308 341.2377  21.0929  2.00566620  6390
GPS BIII-8  (PRN 21)    
1 64202U 25116A   25290.78049740 -.00000089  00000+0  00000+0 0  9992
2 64202  55.0664  40.9005 0003147 299.5445  65.9042  2.00562114  3014
